{
    "satellites": [
        {
            "name": "starlink313",
            "title": "Starlink-313 (G11-12)",
            "tle": [
                "1 66173C 25240AD  25316.43868056 -.02128600  00000+0 -23151-1 0  3169",
                "2 66173  53.1593 249.4761 0001122  78.5570  72.6059 15.64967986    13"
            ],
            "stdMag": 5,
            "noradId": "66173",
            "tleUrl": "http://celestrak.org/NORAD/elements/supplemental/sup-gp.php?FILE=starlink&FORMAT=tle",
            "launchDate": "2025-10-25T14:20:50.000Z",
            "active": true,
            "batch": [
                {
                    "noradId": "66173",
                    "tle": [
                        "1 66173C 25240AD  25316.43868056 -.02128600  00000+0 -23151-1 0  3169",
                        "2 66173  53.1593 249.4761 0001122  78.5570  72.6059 15.64967986    13"
                    ]
                },
                {
                    "noradId": "66168",
                    "tle": [
                        "1 66168C 25240Y   25316.43312500 -.02129600  00000+0 -23140-1 0  3160",
                        "2 66168  53.1593 249.5153 0001144  85.5088  28.5878 15.64992227    14"
                    ]
                },
                {
                    "noradId": "66170",
                    "tle": [
                        "1 66170C 25240AA  25316.43937500 -.02133000  00000+0 -23201-1 0  3163",
                        "2 66170  53.1593 249.4818 0001238  87.6176  63.6243 15.64969580    11"
                    ]
                },
                {
                    "noradId": "66172",
                    "tle": [
                        "1 66172C 25240AC  25316.43729167 -.02133100  00000+0 -23194-1 0  3165",
                        "2 66172  53.1593 249.4987 0001135  87.1596  48.5072 15.64977784    14"
                    ]
                },
                {
                    "noradId": "66169",
                    "tle": [
                        "1 66169C 25240Z   25316.43243056 -.02134600  00000+0 -23191-1 0  3162",
                        "2 66169  53.1593 249.5270 0001125  83.4225  22.9207 15.65001462    11"
                    ]
                },
                {
                    "noradId": "66171",
                    "tle": [
                        "1 66171C 25240AB  25316.43937500 -.02129100  00000+0 -23158-1 0  3161",
                        "2 66171  53.1594 249.4765 0001191  78.4007  74.7582 15.64966034    13"
                    ]
                },
                {
                    "noradId": "66167",
                    "tle": [
                        "1 66167C 25240X   25316.43173611 -.02131500  00000+0 -23155-1 0  3165",
                        "2 66167  53.1593 249.5380 0001113  74.1529  24.4453 15.65000806    13"
                    ]
                },
                {
                    "noradId": "66166",
                    "tle": [
                        "1 66166C 25240W   25316.43798611 -.02132200  00000+0 -23187-1 0  3160",
                        "2 66166  53.1593 249.5037 0001155  77.3911  58.3559 15.64974423    14"
                    ]
                },
                {
                    "noradId": "66165",
                    "tle": [
                        "1 66165C 25240V   25316.43381944 -.02132800  00000+0 -23178-1 0  3162",
                        "2 66165  53.1593 249.5368 0001102  83.4569  23.0512 15.64992940    11"
                    ]
                },
                {
                    "noradId": "66164",
                    "tle": [
                        "1 66164C 25240U   25316.43173611 -.02132600  00000+0 -23168-1 0  3168",
                        "2 66164  53.1593 249.5423 0000980  90.6835   5.9983 15.65001921    13"
                    ]
                },
                {
                    "noradId": "66163",
                    "tle": [
                        "1 66163C 25240T   25316.43243056 -.02131400  00000+0 -23157-1 0  3163",
                        "2 66163  53.1593 249.5471 0000993  90.7498   6.0149 15.64997159    17"
                    ]
                },
                {
                    "noradId": "66162",
                    "tle": [
                        "1 66162C 25240S   25316.43520833 -.02130100  00000+0 -23153-1 0  3165",
                        "2 66162  53.1593 249.5372 0001124  78.6276  31.8765 15.64984435    15"
                    ]
                },
                {
                    "noradId": "66161",
                    "tle": [
                        "1 66161C 25240R   25316.43520833 -.02185200  00000+0 -35390-1 0  3161",
                        "2 66161  53.1598 249.7089 0001082  76.2465 309.1523 15.54401189    15"
                    ]
                },
                {
                    "noradId": "66160",
                    "tle": [
                        "1 66160C 25240Q   25316.43590278 -.02186500  00000+0 -35417-1 0  3164",
                        "2 66160  53.1597 249.7017 0000779  94.6922 296.5151 15.54398807    16"
                    ]
                },
                {
                    "noradId": "66159",
                    "tle": [
                        "1 66159C 25240P   25316.44076389 -.02186000  00000+0 -35436-1 0  3161",
                        "2 66159  53.1597 249.6869 0001004  85.9186 328.6708 15.54376755    18"
                    ]
                },
                {
                    "noradId": "66158",
                    "tle": [
                        "1 66158C 25240N   25316.43312500 -.02188400  00000+0 -35431-1 0  3168",
                        "2 66158  53.1598 249.7273 0000831  94.1476 275.7557 15.54413267    13"
                    ]
                },
                {
                    "noradId": "66157",
                    "tle": [
                        "1 66157C 25240M   25316.43520833 -.02187600  00000+0 -35430-1 0  3167",
                        "2 66157  53.1598 249.7217 0000886  94.3085 285.3427 15.54403181    15"
                    ]
                },
                {
                    "noradId": "66156",
                    "tle": [
                        "1 66156C 25240L   25316.43381944 -.02184600  00000+0 -35376-1 0  3160",
                        "2 66156  53.1597 249.7326 0000857  99.2416 270.7205 15.54405185    12"
                    ]
                },
                {
                    "noradId": "66155",
                    "tle": [
                        "1 66155C 25240K   25316.43798611 -.02185500  00000+0 -35412-1 0  3163",
                        "2 66155  53.1598 249.7160 0001021  82.3081 309.0591 15.54389250    11"
                    ]
                },
                {
                    "noradId": "66154",
                    "tle": [
                        "1 66154C 25240J   25316.46368056 -.02189100  00000+0 -35615-1 0  3166",
                        "2 66154  53.1597 249.5973 0001291  85.8561  87.4488 15.54279335    13"
                    ]
                },
                {
                    "noradId": "66153",
                    "tle": [
                        "1 66153C 25240H   25316.45951389 -.02188400  00000+0 -35579-1 0  3162",
                        "2 66153  53.1597 249.6220 0001231  90.1028  57.9587 15.54296791    16"
                    ]
                },
                {
                    "noradId": "66152",
                    "tle": [
                        "1 66152C 25240G   25316.42895833 -.02186300  00000+0 -35375-1 0  3160",
                        "2 66152  53.1597 249.7722 0000863  99.2005 235.8750 15.54429175    11"
                    ]
                },
                {
                    "noradId": "66151",
                    "tle": [
                        "1 66151C 25240F   25316.43590278 -.02187100  00000+0 -35427-1 0  3162",
                        "2 66151  53.1598 249.7425 0000840  97.9583 274.0817 15.54399026    12"
                    ]
                },
                {
                    "noradId": "66150",
                    "tle": [
                        "1 66150C 25240E   25316.43868056 -.02185400  00000+0 -35414-1 0  3160",
                        "2 66150  53.1597 249.7335 0001000  82.7357 302.9356 15.54386230    12"
                    ]
                },
                {
                    "noradId": "66149",
                    "tle": [
                        "1 66149C 25240D   25316.43659722 -.02184400  00000+0 -35387-1 0  3164",
                        "2 66149  53.1597 249.7472 0000775  94.5598 277.5359 15.54393168    16"
                    ]
                },
                {
                    "noradId": "66148",
                    "tle": [
                        "1 66148C 25240C   25316.43590278 -.02185800  00000+0 -35405-1 0  3169",
                        "2 66148  53.1597 249.7549 0000805  96.9677 269.3213 15.54397989    11"
                    ]
                },
                {
                    "noradId": "66147",
                    "tle": [
                        "1 66147C 25240B   25316.46159722 -.02187800  00000+0 -35581-1 0  3163",
                        "2 66147  53.1597 249.6351 0001193  90.3172  57.9063 15.54287160    12"
                    ]
                },
                {
                    "noradId": "66146",
                    "tle": [
                        "1 66146C 25240A   25316.43590278 -.02187700  00000+0 -35435-1 0  3161",
                        "2 66146  53.1596 249.7629 0001000  95.4310 267.0192 15.54401288    12"
                    ]
                }
            ]
        }
    ],
    "config": {}
}